GLOBALSTAR M063         
1 26081U 00008A   24175.87296604 -.00000043  00000+0  58433-3 0  9999
2 26081  51.9973 335.2323 0004220 357.0943 151.0066 11.86156420115058
GLOBALSTAR M062         
1 26082U 00008B   24175.94239701 -.00000055  00000+0  31154-3 0  9997
2 26082  51.9856  69.2490 0007717  66.0308  19.8581 12.43438842452056
GLOBALSTAR M060         
1 26083U 00008C   24175.94052817  .00000095  00000+0  18488-2 0  9996
2 26083  52.0041 338.5813 0004186 116.2877  52.1528 12.17636074108723
GLOBALSTAR M064         
1 26084U 00008D   24175.87749328 -.00000065  00000+0  25559-3 0  9995
2 26084  52.0038  78.2717 0001989  73.7700 286.3351 11.88519977124497
GLOBALSTAR M065         
1 31571U 07020A   24175.70065678 -.00000045  00000+0  32926-3 0  9998
2 31571  51.9881 237.3546 0009929 232.0228 280.7762 12.61972254788148
GLOBALSTAR M069         
1 31573U 07020C   24175.45403678 -.00000079  00000+0  13886-3 0  9999
2 31573  51.9924 193.9221 0000546 261.7243 242.9245 12.62276041789247
GLOBALSTAR M072         
1 31574U 07020D   24176.46451477 -.00000041  00000+0  34787-3 0  9994
2 31574  52.0091 286.7904 0000821 148.4014 289.4782 12.62258856787803
GLOBALSTAR M071         
1 31576U 07020F   24175.55826610 -.00000077  00000+0  14941-3 0  9999
2 31576  52.0040 198.7771 0000136 332.4691 164.8146 12.62269027450447
